[{"OBJECT_NAME":"CENTISPACE-1 S14","OBJECT_ID":"2025-007J","EPOCH":"2026-03-09T22:41:11.943168","MEAN_MOTION":13.82921817,"ECCENTRICITY":0.00089806,"INCLINATION":54.9841,"RA_OF_ASC_NODE":279.64,"ARG_OF_PERICENTER":292.176,"MEAN_ANOMALY":67.8244,"EPHEMERIS_TYPE":0,"CLASSIFICATION_TYPE":"U","NORAD_CAT_ID":62583,"ELEMENT_SET_NO":999,"REV_AT_EPOCH":6100,"BSTAR":0.00010890491,"MEAN_MOTION_DOT":-2.2e-7,"MEAN_MOTION_DDOT":0},{"OBJECT_NAME":"SDA_1665","OBJECT_ID":"2025-230B","EPOCH":"2026-03-09T22:47:20.541984","MEAN_MOTION":13.85178901,"ECCENTRICITY":0.00037609,"INCLINATION":81.3004,"RA_OF_ASC_NODE":303.6398,"ARG_OF_PERICENTER":117.7881,"MEAN_ANOMALY":242.3658,"EPHEMERIS_TYPE":0,"CLASSIFICATION_TYPE":"U","NORAD_CAT_ID":65975,"ELEMENT_SET_NO":999,"REV_AT_EPOCH":2008,"BSTAR":-0.026076654,"MEAN_MOTION_DOT":-0.00029429,"MEAN_MOTION_DDOT":0}]
